     2.11           G: GLONASS NAV DATA                     RINEX VERSION / TYPE
teqc  2016Apr1      IGN                 20230705 10:12:03UTCPGM / RUN BY / DATE
    18                                                      LEAP SECONDS
Linux 2.4.21-27.ELsmp|Opteron|gcc|Linux x86_64|=+           COMMENT
teqc  2016Apr1      IGN                 20230705 10:12:03UTCCOMMENT
  2023     7     5    1.862645149231D-09                    CORR TO SYSTEM TIME
                                                            END OF HEADER
22 23  7  5  8 15  0.0 8.984096348286D-05 6.366462912410D-12 2.880000000000D+04
    6.825279296875D+03-1.790895462036D+00 0.000000000000D+00 0.000000000000D+00
    9.021539550781D+03 2.564591407776D+00 4.656612873077D-09-3.000000000000D+00
    2.288421582031D+04-4.763412475586D-01-0.000000000000D+00 0.000000000000D+00
21 23  7  5  8 15  0.0-2.035032957792D-05-2.728484105319D-12 2.880000000000D+04
   -4.782443359375D+03-1.006101608276D+00 1.862645149231D-09 0.000000000000D+00
    1.983647412109D+04 1.849042892456D+00 4.656612873077D-09 4.000000000000D+00
    1.527985205078D+04-2.716619491577D+00 9.313225746155D-10 0.000000000000D+00
13 23  7  5  8 15  0.0-3.676209598780D-05-0.000000000000D+00 2.880000000000D+04
    1.745162646484D+04 2.322704315186D+00-1.862645149231D-09 0.000000000000D+00
   -7.670158691406D+03-3.578090667725D-02 1.862645149231D-09-2.000000000000D+00
    1.693923046875D+04-2.407968521118D+00-9.313225746155D-10 0.000000000000D+00
12 23  7  5  8 15  0.0 2.876948565245D-05 9.094947017729D-13 2.880000000000D+04
    2.535305566406D+04 3.935279846191D-01-2.793967723846D-09 0.000000000000D+00
   -3.998037109375D+02-1.354608535767D-01 1.862645149231D-09-1.000000000000D+00
    2.865954101562D+03-3.535763740540D+00 0.000000000000D+00 0.000000000000D+00
24 23  7  5  8 15  0.0-1.511350274086D-05-1.818989403546D-12 2.880000000000D+04
    1.502006835938D+04-3.716611862183D-01-2.793967723846D-09 0.000000000000D+00
   -2.041822412109D+04 2.390241622925D-01-1.862645149231D-09 2.000000000000D+00
    2.957707031250D+03 3.547465324402D+00-2.793967723846D-09 0.000000000000D+00
23 23  7  5  8 15  0.0-8.832942694426D-05-9.094947017729D-13 2.880000000000D+04
    1.569730957031D+04-1.505002975464D+00-9.313225746155D-10 0.000000000000D+00
   -8.949078125000D+03 1.965405464172D+00 1.862645149231D-09 3.000000000000D+00
    1.799069238281D+04 2.288785934448D+00-1.862645149231D-09 0.000000000000D+00
 7 23  7  5  8 15  0.0 5.948543548584D-05 9.094947017729D-13 2.880000000000D+04
    7.839076171875D+03-3.300228118896D-01 9.313225746155D-10 0.000000000000D+00
    2.305945458984D+04-1.008672714233D+00 5.587935447693D-09 5.000000000000D+00
    7.703278320312D+03 3.368260383606D+00 1.862645149231D-09 0.000000000000D+00
14 23  7  5  8 15  0.0 2.488121390343D-05 0.000000000000D+00 2.880000000000D+04
   -2.699586914062D+03 3.112283706665D+00 0.000000000000D+00 0.000000000000D+00
   -1.116758056641D+04 1.182174682617D-01 9.313225746155D-10-7.000000000000D+00
    2.279226660156D+04 4.247655868530D-01-2.793967723846D-09 0.000000000000D+00
11 23  7  5  8 15  0.0-9.647384285927D-05-1.000444171950D-11 2.883000000000D+04
    1.874260791016D+04-2.104965209961D+00-1.862645149231D-09 0.000000000000D+00
    7.875786621094D+03-1.851787567139D-01 0.000000000000D+00 0.000000000000D+00
   -1.537976611328D+04-2.659173011780D+00 2.793967723846D-09 0.000000000000D+00
 8 23  7  5  8 15  0.0-7.151626050472D-05-0.000000000000D+00 2.997000000000D+04
    1.447163330078D+04 6.934833526611D-01-0.000000000000D+00 0.000000000000D+00
    1.913728759766D+04 9.840507507324D-01 2.793967723846D-09 6.000000000000D+00
   -8.645134277344D+03 3.313839912415D+00 3.725290298462D-09 0.000000000000D+00
 6 23  7  5  8 15  0.0-1.179678365588D-04-1.818989403546D-12 3.042000000000D+04
   -2.910263671875D+03-1.299772262573D+00 1.862645149231D-09 0.000000000000D+00
    1.490773437500D+04-2.488823890686D+00 4.656612873077D-09-4.000000000000D+00
    2.048865380859D+04 1.623799324036D+00 0.000000000000D+00 0.000000000000D+00
 5 23  7  5  8 15  0.0 1.152707263827D-04 9.094947017729D-13 2.880000000000D+04
   -1.355732568359D+04-1.368384361267D+00 1.862645149231D-09 0.000000000000D+00
   -5.241372070312D+03-2.524284362793D+00 9.313225746155D-10 1.000000000000D+00
    2.096771875000D+04-1.518547058105D+00-1.862645149231D-09 0.000000000000D+00
 4 23  7  5  8 15  0.0 1.938370987773D-04 1.818989403546D-12 2.880000000000D+04
   -1.430897607422D+04-6.948661804199D-01 0.000000000000D+00 0.000000000000D+00
   -1.928336132812D+04-9.667053222656D-01-3.725290298462D-09 6.000000000000D+00
    8.621107421875D+03-3.327808380127D+00-3.725290298462D-09 0.000000000000D+00
15 23  7  5  8 15  0.0 8.808728307486D-05-0.000000000000D+00 3.009000000000D+04
   -1.962537060547D+04 1.958077430725D+00 1.862645149231D-09 0.000000000000D+00
   -7.710546386719D+03 1.934957504272D-01-0.000000000000D+00 0.000000000000D+00
    1.438527783203D+04 2.778764724731D+00-2.793967723846D-09 0.000000000000D+00
 3 23  7  5  8 15  0.0 8.096545934677D-05 0.000000000000D+00 2.880000000000D+04
   -7.417559570312D+03 3.914604187012D-01-0.000000000000D+00 0.000000000000D+00
   -2.287558593750D+04 1.099452972412D+00-6.519258022308D-09 5.000000000000D+00
   -8.376810058594D+03-3.335544586182D+00-2.793967723846D-09 0.000000000000D+00
10 23  7  5  8 15  0.0-9.473413228989D-05-0.000000000000D+00 2.880000000000D+04
    6.195361328125D+02-3.143175125122D+00 0.000000000000D+00 0.000000000000D+00
    1.106524853516D+04-9.729194641113D-02-9.313225746155D-10-7.000000000000D+00
   -2.297792285156D+04-1.249399185181D-01 2.793967723846D-09 0.000000000000D+00
 1 23  7  5  8 15  0.0 6.076786667109D-05 0.000000000000D+00 2.880000000000D+04
    1.361558251953D+04 1.459621429443D+00-1.862645149231D-09 0.000000000000D+00
    3.682342773438D+03 2.518096923828D+00-9.313225746155D-10 1.000000000000D+00
   -2.124883886719D+04 1.372809410095D+00 2.793967723846D-09 0.000000000000D+00
17 23  7  5  8 15  0.0-2.942048013210D-06 2.728484105319D-12 2.880000000000D+04
    5.525222656250D+03 9.089822769165D-01-1.862645149231D-09 0.000000000000D+00
   -2.046500097656D+04-1.731878280640D+00-5.587935447693D-09 4.000000000000D+00
   -1.422042871094D+04 2.841199874878D+00-1.862645149231D-09 0.000000000000D+00
 2 23  7  5  8 15  0.0-2.263300120831D-05-0.000000000000D+00 2.880000000000D+04
    4.072356933594D+03 1.246097564697D+00-1.862645149231D-09 0.000000000000D+00
   -1.372941406250D+04 2.615611076355D+00-5.587935447693D-09-4.000000000000D+00
   -2.104754541016D+04-1.467728614807D+00 0.000000000000D+00 0.000000000000D+00
16 23  7  5  8 15  0.0 1.634098589420D-05 9.094947017729D-13 2.985000000000D+04
   -2.540266894531D+04-3.470907211304D-01 2.793967723846D-09 0.000000000000D+00
    3.809082031250D+02 1.643714904785D-01-9.313225746155D-10-1.000000000000D+00
   -2.483137207031D+03 3.551742553711D+00-0.000000000000D+00 0.000000000000D+00
20 23  7  5  8 15  0.0-9.599886834621D-05-0.000000000000D+00 2.880000000000D+04
   -1.585511279297D+04 4.919500350952D-01 1.862645149231D-09 0.000000000000D+00
    1.968163330078D+04-2.557592391968D-01 1.862645149231D-09 2.000000000000D+00
   -3.594210449219D+03-3.566488265991D+00 1.862645149231D-09 0.000000000000D+00
19 23  7  5  8 15  0.0-2.387063577771D-04-9.094947017729D-13 2.880000000000D+04
   -1.443153271484D+04 1.716721534729D+00 9.313225746155D-10 0.000000000000D+00
    4.657115722656D+03-2.231239318848D+00-2.793967723846D-09 3.000000000000D+00
   -2.051581054688D+04-1.715235710144D+00 1.862645149231D-09 0.000000000000D+00
 9 23  7  5  8 15  0.0 1.294817775488D-04 1.818989403546D-12 2.880000000000D+04
   -1.575204931641D+04-2.477846145630D+00 1.862645149231D-09 0.000000000000D+00
    8.704649414063D+03 2.513694763184D-02-9.313225746155D-10-2.000000000000D+00
   -1.809235449219D+04 2.159095764160D+00 1.862645149231D-09 0.000000000000D+00
18 23  7  5  8 15  0.0 9.000301361084D-05 9.094947017729D-13 2.880000000000D+04
   -6.157136230469D+03 1.700427055359D+00-0.000000000000D+00 1.000000000000D+00
   -9.370974121094D+03-2.643247604370D+00-5.587935447693D-09-3.000000000000D+00
   -2.289847314453D+04 6.284399032593D-01 0.000000000000D+00 0.000000000000D+00
 8 23  7  5  8 45  0.0-7.151626050472D-05-0.000000000000D+00 3.060000000000D+04
    1.543806103516D+04 3.396911621094D-01 0.000000000000D+00 0.000000000000D+00
    2.017388525391D+04 1.776790618896D-01 4.656612873077D-09 6.000000000000D+00
   -2.423011230469D+03 3.554674148560D+00 2.793967723846D-09 0.000000000000D+00
22 23  7  5  8 45  0.0 8.985307067633D-05 6.366462912410D-12 3.060000000000D+04
    4.039516601562D+03-1.287679672241D+00 1.862645149231D-09 0.000000000000D+00
    1.370402441406D+04 2.589843750000D+00 4.656612873077D-09-3.000000000000D+00
    2.115538525391D+04-1.432146072388D+00 0.000000000000D+00 0.000000000000D+00
13 23  7  5  8 45  0.0-3.676302731037D-05-0.000000000000D+00 3.060000000000D+04
    2.103139550781D+04 1.623296737671D+00-1.862645149231D-09 0.000000000000D+00
   -7.997412597656D+03-2.953004837036D-01 1.862645149231D-09-2.000000000000D+00
    1.200560156250D+04-3.038210868835D+00-9.313225746155D-10 0.000000000000D+00
12 23  7  5  8 45  0.0 2.877041697502D-05 0.000000000000D+00 3.060000000000D+04
    2.525675439453D+04-4.987506866455D-01-1.862645149231D-09 0.000000000000D+00
   -6.514565429688D+02-1.035728454590D-01 1.862645149231D-09-1.000000000000D+00
   -3.526957519531D+03-3.521367073059D+00 9.313225746155D-10 0.000000000000D+00
24 23  7  5  8 45  0.0-1.511629670858D-05-1.818989403546D-12 3.060000000000D+04
    1.402516601562D+04-6.923713684082D-01-2.793967723846D-09 0.000000000000D+00
   -1.926057910156D+04 1.054794311523D+00-0.000000000000D+00 2.000000000000D+00
    9.146550292969D+03 3.284442901611D+00-2.793967723846D-09 0.000000000000D+00
